[{"OBJECT_NAME":"SHIYAN-6 01 (SY-6 01)","OBJECT_ID":"2018-094B","EPOCH":"2026-03-09T23:04:36.967872","MEAN_MOTION":15.28649156,"ECCENTRICITY":0.00144834,"INCLINATION":97.3669,"RA_OF_ASC_NODE":84.0964,"ARG_OF_PERICENTER":135.6758,"MEAN_ANOMALY":224.5644,"EPHEMERIS_TYPE":0,"CLASSIFICATION_TYPE":"U","NORAD_CAT_ID":43711,"ELEMENT_SET_NO":999,"REV_AT_EPOCH":40632,"BSTAR":0.00024768444,"MEAN_MOTION_DOT":6.847e-5,"MEAN_MOTION_DDOT":0},{"OBJECT_NAME":"STARLINK-32251","OBJECT_ID":"2024-155S","EPOCH":"2026-03-09T10:54:25.179840","MEAN_MOTION":15.30187692,"ECCENTRICITY":0.00011652,"INCLINATION":53.1599,"RA_OF_ASC_NODE":130.8472,"ARG_OF_PERICENTER":85.1457,"MEAN_ANOMALY":274.9676,"EPHEMERIS_TYPE":0,"CLASSIFICATION_TYPE":"U","NORAD_CAT_ID":60940,"ELEMENT_SET_NO":999,"REV_AT_EPOCH":8630,"BSTAR":6.2327333e-5,"MEAN_MOTION_DOT":1.487e-5,"MEAN_MOTION_DDOT":0}]
